ONEWEB-0228             
1 48780U 21045P   24164.74328921  .00000142  00000+0  34376-3 0  9994
2 48780  87.9039  45.3339 0001981  82.1584 277.9771 13.15547231148891
